<?xml version="1.0" encoding="UTF-8"?>
<gpx version="1.1" creator="OX Trails — oxtrails.org.uk" xmlns="http://www.topografix.com/GPX/1/1">
  <metadata><name>Goring to the White Horse (The Ridgeway)</name><author><name>OX Trails</name></author></metadata>
  <trk><name>Goring to the White Horse (The Ridgeway)</name><type>cycling</type><trkseg>
    <trkpt lat="51.522250" lon="-1.132890"></trkpt>
    <trkpt lat="51.522760" lon="-1.133350"></trkpt>
    <trkpt lat="51.523190" lon="-1.134000"></trkpt>
    <trkpt lat="51.522600" lon="-1.136620"></trkpt>
    <trkpt lat="51.522660" lon="-1.137480"></trkpt>
    <trkpt lat="51.522710" lon="-1.138200"></trkpt>
    <trkpt lat="51.522870" lon="-1.138620"></trkpt>
    <trkpt lat="51.522950" lon="-1.140580"></trkpt>
    <trkpt lat="51.522890" lon="-1.145230"></trkpt>
    <trkpt lat="51.522730" lon="-1.146540"></trkpt>
    <trkpt lat="51.522610" lon="-1.147980"></trkpt>
    <trkpt lat="51.522940" lon="-1.148240"></trkpt>
    <trkpt lat="51.523180" lon="-1.148250"></trkpt>
    <trkpt lat="51.523260" lon="-1.148140"></trkpt>
    <trkpt lat="51.523550" lon="-1.149010"></trkpt>
    <trkpt lat="51.524980" lon="-1.149170"></trkpt>
    <trkpt lat="51.525300" lon="-1.149160"></trkpt>
    <trkpt lat="51.525490" lon="-1.149400"></trkpt>
    <trkpt lat="51.527230" lon="-1.150550"></trkpt>
    <trkpt lat="51.528680" lon="-1.151060"></trkpt>
    <trkpt lat="51.529100" lon="-1.151530"></trkpt>
    <trkpt lat="51.529450" lon="-1.152310"></trkpt>
    <trkpt lat="51.529790" lon="-1.154360"></trkpt>
    <trkpt lat="51.529740" lon="-1.156630"></trkpt>
    <trkpt lat="51.529240" lon="-1.158830"></trkpt>
    <trkpt lat="51.529240" lon="-1.160960"></trkpt>
    <trkpt lat="51.529320" lon="-1.162810"></trkpt>
    <trkpt lat="51.529090" lon="-1.164340"></trkpt>
    <trkpt lat="51.529010" lon="-1.166240"></trkpt>
    <trkpt lat="51.528840" lon="-1.167860"></trkpt>
    <trkpt lat="51.528810" lon="-1.170750"></trkpt>
    <trkpt lat="51.528950" lon="-1.173040"></trkpt>
    <trkpt lat="51.528640" lon="-1.176090"></trkpt>
    <trkpt lat="51.528030" lon="-1.180120"></trkpt>
    <trkpt lat="51.527810" lon="-1.181740"></trkpt>
    <trkpt lat="51.527280" lon="-1.187380"></trkpt>
    <trkpt lat="51.527240" lon="-1.200360"></trkpt>
    <trkpt lat="51.527320" lon="-1.201800"></trkpt>
    <trkpt lat="51.527250" lon="-1.204720"></trkpt>
    <trkpt lat="51.527200" lon="-1.207680"></trkpt>
    <trkpt lat="51.527470" lon="-1.209320"></trkpt>
    <trkpt lat="51.527810" lon="-1.210580"></trkpt>
    <trkpt lat="51.528010" lon="-1.211250"></trkpt>
    <trkpt lat="51.528060" lon="-1.212380"></trkpt>
    <trkpt lat="51.528160" lon="-1.213130"></trkpt>
    <trkpt lat="51.528370" lon="-1.214030"></trkpt>
    <trkpt lat="51.528650" lon="-1.214490"></trkpt>
    <trkpt lat="51.528940" lon="-1.214920"></trkpt>
    <trkpt lat="51.528970" lon="-1.215740"></trkpt>
    <trkpt lat="51.529100" lon="-1.217360"></trkpt>
    <trkpt lat="51.529400" lon="-1.219060"></trkpt>
    <trkpt lat="51.529470" lon="-1.220640"></trkpt>
    <trkpt lat="51.529760" lon="-1.222290"></trkpt>
    <trkpt lat="51.529950" lon="-1.222860"></trkpt>
    <trkpt lat="51.531450" lon="-1.225590"></trkpt>
    <trkpt lat="51.532000" lon="-1.226610"></trkpt>
    <trkpt lat="51.532490" lon="-1.227400"></trkpt>
    <trkpt lat="51.532930" lon="-1.228560"></trkpt>
    <trkpt lat="51.533450" lon="-1.230410"></trkpt>
    <trkpt lat="51.533650" lon="-1.230720"></trkpt>
    <trkpt lat="51.534140" lon="-1.231080"></trkpt>
    <trkpt lat="51.535230" lon="-1.232880"></trkpt>
    <trkpt lat="51.536620" lon="-1.236590"></trkpt>
    <trkpt lat="51.537500" lon="-1.240330"></trkpt>
    <trkpt lat="51.537770" lon="-1.241970"></trkpt>
    <trkpt lat="51.537720" lon="-1.246780"></trkpt>
    <trkpt lat="51.537520" lon="-1.249980"></trkpt>
    <trkpt lat="51.537480" lon="-1.250820"></trkpt>
    <trkpt lat="51.537420" lon="-1.251730"></trkpt>
    <trkpt lat="51.537550" lon="-1.252630"></trkpt>
    <trkpt lat="51.537390" lon="-1.253190"></trkpt>
    <trkpt lat="51.537240" lon="-1.254020"></trkpt>
    <trkpt lat="51.537040" lon="-1.255680"></trkpt>
    <trkpt lat="51.537000" lon="-1.256450"></trkpt>
    <trkpt lat="51.535240" lon="-1.262260"></trkpt>
    <trkpt lat="51.534070" lon="-1.266030"></trkpt>
    <trkpt lat="51.533860" lon="-1.266820"></trkpt>
    <trkpt lat="51.535480" lon="-1.269620"></trkpt>
    <trkpt lat="51.537140" lon="-1.271590"></trkpt>
    <trkpt lat="51.537520" lon="-1.272100"></trkpt>
    <trkpt lat="51.538680" lon="-1.273480"></trkpt>
    <trkpt lat="51.539010" lon="-1.274020"></trkpt>
    <trkpt lat="51.539130" lon="-1.274440"></trkpt>
    <trkpt lat="51.539320" lon="-1.275680"></trkpt>
    <trkpt lat="51.539670" lon="-1.276720"></trkpt>
    <trkpt lat="51.542400" lon="-1.280140"></trkpt>
    <trkpt lat="51.543380" lon="-1.281480"></trkpt>
    <trkpt lat="51.544420" lon="-1.283660"></trkpt>
    <trkpt lat="51.545020" lon="-1.285250"></trkpt>
    <trkpt lat="51.546630" lon="-1.289950"></trkpt>
    <trkpt lat="51.547380" lon="-1.291760"></trkpt>
    <trkpt lat="51.547680" lon="-1.293040"></trkpt>
    <trkpt lat="51.547910" lon="-1.293290"></trkpt>
    <trkpt lat="51.548110" lon="-1.293530"></trkpt>
    <trkpt lat="51.548020" lon="-1.294370"></trkpt>
    <trkpt lat="51.548020" lon="-1.294850"></trkpt>
    <trkpt lat="51.548660" lon="-1.296420"></trkpt>
    <trkpt lat="51.549440" lon="-1.298910"></trkpt>
    <trkpt lat="51.550950" lon="-1.303300"></trkpt>
    <trkpt lat="51.553070" lon="-1.309570"></trkpt>
    <trkpt lat="51.553620" lon="-1.311270"></trkpt>
    <trkpt lat="51.553920" lon="-1.312100"></trkpt>
    <trkpt lat="51.554450" lon="-1.314060"></trkpt>
    <trkpt lat="51.555210" lon="-1.317120"></trkpt>
    <trkpt lat="51.555900" lon="-1.319900"></trkpt>
    <trkpt lat="51.556610" lon="-1.322150"></trkpt>
    <trkpt lat="51.558570" lon="-1.327610"></trkpt>
    <trkpt lat="51.560510" lon="-1.333080"></trkpt>
    <trkpt lat="51.560610" lon="-1.333730"></trkpt>
    <trkpt lat="51.560770" lon="-1.334350"></trkpt>
    <trkpt lat="51.560920" lon="-1.334810"></trkpt>
    <trkpt lat="51.561560" lon="-1.337630"></trkpt>
    <trkpt lat="51.562030" lon="-1.339830"></trkpt>
    <trkpt lat="51.562180" lon="-1.340410"></trkpt>
    <trkpt lat="51.562370" lon="-1.340760"></trkpt>
    <trkpt lat="51.562540" lon="-1.341880"></trkpt>
    <trkpt lat="51.562980" lon="-1.344460"></trkpt>
    <trkpt lat="51.563310" lon="-1.347150"></trkpt>
    <trkpt lat="51.563570" lon="-1.349670"></trkpt>
    <trkpt lat="51.563590" lon="-1.350860"></trkpt>
    <trkpt lat="51.563620" lon="-1.351940"></trkpt>
    <trkpt lat="51.563370" lon="-1.354460"></trkpt>
    <trkpt lat="51.563280" lon="-1.355390"></trkpt>
    <trkpt lat="51.563040" lon="-1.357470"></trkpt>
    <trkpt lat="51.562890" lon="-1.358630"></trkpt>
    <trkpt lat="51.562840" lon="-1.358990"></trkpt>
    <trkpt lat="51.562640" lon="-1.359900"></trkpt>
    <trkpt lat="51.561880" lon="-1.362730"></trkpt>
    <trkpt lat="51.560540" lon="-1.367820"></trkpt>
    <trkpt lat="51.559730" lon="-1.371090"></trkpt>
    <trkpt lat="51.559310" lon="-1.373710"></trkpt>
    <trkpt lat="51.558730" lon="-1.376820"></trkpt>
    <trkpt lat="51.558680" lon="-1.377270"></trkpt>
    <trkpt lat="51.558640" lon="-1.380760"></trkpt>
    <trkpt lat="51.558640" lon="-1.381930"></trkpt>
    <trkpt lat="51.558510" lon="-1.384770"></trkpt>
    <trkpt lat="51.558250" lon="-1.385800"></trkpt>
    <trkpt lat="51.557620" lon="-1.387640"></trkpt>
    <trkpt lat="51.556920" lon="-1.389880"></trkpt>
    <trkpt lat="51.556800" lon="-1.390530"></trkpt>
    <trkpt lat="51.556490" lon="-1.391570"></trkpt>
    <trkpt lat="51.555810" lon="-1.393280"></trkpt>
    <trkpt lat="51.555210" lon="-1.395220"></trkpt>
    <trkpt lat="51.555050" lon="-1.395910"></trkpt>
    <trkpt lat="51.554550" lon="-1.397920"></trkpt>
    <trkpt lat="51.554430" lon="-1.398350"></trkpt>
    <trkpt lat="51.554250" lon="-1.399010"></trkpt>
    <trkpt lat="51.553650" lon="-1.402120"></trkpt>
    <trkpt lat="51.553490" lon="-1.403520"></trkpt>
    <trkpt lat="51.553400" lon="-1.404770"></trkpt>
    <trkpt lat="51.553810" lon="-1.407130"></trkpt>
    <trkpt lat="51.554160" lon="-1.409370"></trkpt>
    <trkpt lat="51.554290" lon="-1.410280"></trkpt>
    <trkpt lat="51.554970" lon="-1.411810"></trkpt>
    <trkpt lat="51.555890" lon="-1.414040"></trkpt>
    <trkpt lat="51.556970" lon="-1.416430"></trkpt>
    <trkpt lat="51.557200" lon="-1.416890"></trkpt>
    <trkpt lat="51.557110" lon="-1.417250"></trkpt>
    <trkpt lat="51.556090" lon="-1.417850"></trkpt>
    <trkpt lat="51.556020" lon="-1.418260"></trkpt>
    <trkpt lat="51.556160" lon="-1.420010"></trkpt>
    <trkpt lat="51.556210" lon="-1.421240"></trkpt>
    <trkpt lat="51.556260" lon="-1.423310"></trkpt>
    <trkpt lat="51.556280" lon="-1.424880"></trkpt>
    <trkpt lat="51.556530" lon="-1.427130"></trkpt>
    <trkpt lat="51.556660" lon="-1.428420"></trkpt>
    <trkpt lat="51.556640" lon="-1.430910"></trkpt>
    <trkpt lat="51.557310" lon="-1.432590"></trkpt>
    <trkpt lat="51.556980" lon="-1.435210"></trkpt>
    <trkpt lat="51.556610" lon="-1.438090"></trkpt>
    <trkpt lat="51.556310" lon="-1.440300"></trkpt>
    <trkpt lat="51.555980" lon="-1.442870"></trkpt>
    <trkpt lat="51.555720" lon="-1.444600"></trkpt>
    <trkpt lat="51.555100" lon="-1.449170"></trkpt>
    <trkpt lat="51.554870" lon="-1.451060"></trkpt>
    <trkpt lat="51.554670" lon="-1.452220"></trkpt>
    <trkpt lat="51.554600" lon="-1.454760"></trkpt>
    <trkpt lat="51.554670" lon="-1.455220"></trkpt>
    <trkpt lat="51.554460" lon="-1.457620"></trkpt>
    <trkpt lat="51.554320" lon="-1.460180"></trkpt>
    <trkpt lat="51.554320" lon="-1.461210"></trkpt>
    <trkpt lat="51.554190" lon="-1.463690"></trkpt>
    <trkpt lat="51.554020" lon="-1.466780"></trkpt>
    <trkpt lat="51.553970" lon="-1.467070"></trkpt>
    <trkpt lat="51.553980" lon="-1.467910"></trkpt>
    <trkpt lat="51.554060" lon="-1.468370"></trkpt>
    <trkpt lat="51.554090" lon="-1.469240"></trkpt>
    <trkpt lat="51.554260" lon="-1.471350"></trkpt>
    <trkpt lat="51.554820" lon="-1.477350"></trkpt>
    <trkpt lat="51.554900" lon="-1.478950"></trkpt>
    <trkpt lat="51.555140" lon="-1.481590"></trkpt>
    <trkpt lat="51.555540" lon="-1.486020"></trkpt>
    <trkpt lat="51.555720" lon="-1.487080"></trkpt>
    <trkpt lat="51.556330" lon="-1.489500"></trkpt>
    <trkpt lat="51.556490" lon="-1.490400"></trkpt>
    <trkpt lat="51.556610" lon="-1.490700"></trkpt>
    <trkpt lat="51.557060" lon="-1.493420"></trkpt>
    <trkpt lat="51.557280" lon="-1.494250"></trkpt>
    <trkpt lat="51.558460" lon="-1.496630"></trkpt>
    <trkpt lat="51.559290" lon="-1.498330"></trkpt>
    <trkpt lat="51.559630" lon="-1.499040"></trkpt>
    <trkpt lat="51.560370" lon="-1.500650"></trkpt>
    <trkpt lat="51.560780" lon="-1.501260"></trkpt>
    <trkpt lat="51.561130" lon="-1.501870"></trkpt>
    <trkpt lat="51.561840" lon="-1.503050"></trkpt>
    <trkpt lat="51.562570" lon="-1.504050"></trkpt>
    <trkpt lat="51.563400" lon="-1.505020"></trkpt>
    <trkpt lat="51.563850" lon="-1.505840"></trkpt>
    <trkpt lat="51.564700" lon="-1.507040"></trkpt>
    <trkpt lat="51.567090" lon="-1.512760"></trkpt>
    <trkpt lat="51.567300" lon="-1.513380"></trkpt>
    <trkpt lat="51.570210" lon="-1.518120"></trkpt>
    <trkpt lat="51.570340" lon="-1.518640"></trkpt>
    <trkpt lat="51.570370" lon="-1.520520"></trkpt>
    <trkpt lat="51.570210" lon="-1.521590"></trkpt>
    <trkpt lat="51.570250" lon="-1.523660"></trkpt>
    <trkpt lat="51.570450" lon="-1.524540"></trkpt>
    <trkpt lat="51.570740" lon="-1.525380"></trkpt>
    <trkpt lat="51.571170" lon="-1.526760"></trkpt>
    <trkpt lat="51.571470" lon="-1.527690"></trkpt>
    <trkpt lat="51.571780" lon="-1.528820"></trkpt>
    <trkpt lat="51.572950" lon="-1.532260"></trkpt>
    <trkpt lat="51.573770" lon="-1.534410"></trkpt>
    <trkpt lat="51.574590" lon="-1.536300"></trkpt>
    <trkpt lat="51.575240" lon="-1.537650"></trkpt>
    <trkpt lat="51.576220" lon="-1.541470"></trkpt>
    <trkpt lat="51.576490" lon="-1.543750"></trkpt>
    <trkpt lat="51.576540" lon="-1.546240"></trkpt>
    <trkpt lat="51.576410" lon="-1.548060"></trkpt>
    <trkpt lat="51.576250" lon="-1.551410"></trkpt>
    <trkpt lat="51.576330" lon="-1.553040"></trkpt>
    <trkpt lat="51.576290" lon="-1.555130"></trkpt>
    <trkpt lat="51.576050" lon="-1.557610"></trkpt>
    <trkpt lat="51.575790" lon="-1.559550"></trkpt>
    <trkpt lat="51.575660" lon="-1.560470"></trkpt>
    <trkpt lat="51.575350" lon="-1.562460"></trkpt>
    <trkpt lat="51.575010" lon="-1.563920"></trkpt>
    <trkpt lat="51.574500" lon="-1.566200"></trkpt>
    <trkpt lat="51.574110" lon="-1.567940"></trkpt>
    <trkpt lat="51.573410" lon="-1.569980"></trkpt>
    <trkpt lat="51.572750" lon="-1.572380"></trkpt>
    <trkpt lat="51.571720" lon="-1.575820"></trkpt>
    <trkpt lat="51.573680" lon="-1.576920"></trkpt>
    <trkpt lat="51.575900" lon="-1.577900"></trkpt>
    <trkpt lat="51.576910" lon="-1.578680"></trkpt>
  </trkseg></trk>
</gpx>
