<?xml version="1.0" encoding="UTF-8"?>
<gpx version="1.1" creator="OX Trails — oxtrails.org.uk" xmlns="http://www.topografix.com/GPX/1/1">
  <metadata><name>Banbury to Oxford (Oxford Canal)</name><author><name>OX Trails</name></author></metadata>
  <trk><name>Banbury to Oxford (Oxford Canal)</name><type>cycling</type><trkseg>
    <trkpt lat="52.062804" lon="-1.331614"><ele>97.8</ele></trkpt>
    <trkpt lat="52.062759" lon="-1.331457"><ele>97.8</ele></trkpt>
    <trkpt lat="52.062493" lon="-1.330783"><ele>96.0</ele></trkpt>
    <trkpt lat="52.062033" lon="-1.330329"><ele>94.9</ele></trkpt>
    <trkpt lat="52.061443" lon="-1.329953"><ele>93.6</ele></trkpt>
    <trkpt lat="52.060038" lon="-1.329996"><ele>94.9</ele></trkpt>
    <trkpt lat="52.058704" lon="-1.330193"><ele>96.0</ele></trkpt>
    <trkpt lat="52.057527" lon="-1.330146"><ele>97.1</ele></trkpt>
    <trkpt lat="52.057178" lon="-1.329970"><ele>97.3</ele></trkpt>
    <trkpt lat="52.055098" lon="-1.325956"><ele>96.0</ele></trkpt>
    <trkpt lat="52.053472" lon="-1.323276"><ele>94.5</ele></trkpt>
    <trkpt lat="52.050338" lon="-1.318487"><ele>92.5</ele></trkpt>
    <trkpt lat="52.048921" lon="-1.316743"><ele>91.7</ele></trkpt>
    <trkpt lat="52.046848" lon="-1.314592"><ele>92.9</ele></trkpt>
    <trkpt lat="52.045888" lon="-1.312896"><ele>93.8</ele></trkpt>
    <trkpt lat="52.045469" lon="-1.311356"><ele>94.4</ele></trkpt>
    <trkpt lat="52.045101" lon="-1.310183"><ele>94.8</ele></trkpt>
    <trkpt lat="52.044774" lon="-1.308792"><ele>94.2</ele></trkpt>
    <trkpt lat="52.044196" lon="-1.307225"><ele>93.8</ele></trkpt>
    <trkpt lat="52.043245" lon="-1.305400"><ele>93.2</ele></trkpt>
    <trkpt lat="52.042998" lon="-1.304148"><ele>93.0</ele></trkpt>
    <trkpt lat="52.042216" lon="-1.302971"><ele>92.8</ele></trkpt>
    <trkpt lat="52.040557" lon="-1.300583"><ele>91.9</ele></trkpt>
    <trkpt lat="52.040450" lon="-1.300556"><ele>91.7</ele></trkpt>
    <trkpt lat="52.039675" lon="-1.299407"><ele>90.6</ele></trkpt>
    <trkpt lat="52.037872" lon="-1.298723"><ele>88.7</ele></trkpt>
    <trkpt lat="52.035580" lon="-1.297921"><ele>89.0</ele></trkpt>
    <trkpt lat="52.033705" lon="-1.297083"><ele>90.1</ele></trkpt>
    <trkpt lat="52.032334" lon="-1.296539"><ele>91.4</ele></trkpt>
    <trkpt lat="52.031255" lon="-1.296383"><ele>92.4</ele></trkpt>
    <trkpt lat="52.029539" lon="-1.296119"><ele>91.8</ele></trkpt>
    <trkpt lat="52.028679" lon="-1.295498"><ele>91.5</ele></trkpt>
    <trkpt lat="52.027830" lon="-1.294781"><ele>91.2</ele></trkpt>
    <trkpt lat="52.027269" lon="-1.294210"><ele>91.0</ele></trkpt>
    <trkpt lat="52.027276" lon="-1.293018"><ele>90.8</ele></trkpt>
    <trkpt lat="52.026217" lon="-1.289075"><ele>89.2</ele></trkpt>
    <trkpt lat="52.026043" lon="-1.288325"><ele>88.9</ele></trkpt>
    <trkpt lat="52.025606" lon="-1.286957"><ele>88.2</ele></trkpt>
    <trkpt lat="52.025206" lon="-1.286700"><ele>88.0</ele></trkpt>
    <trkpt lat="52.024440" lon="-1.286840"><ele>87.4</ele></trkpt>
    <trkpt lat="52.023888" lon="-1.286892"><ele>87.1</ele></trkpt>
    <trkpt lat="52.023123" lon="-1.287453"><ele>86.5</ele></trkpt>
    <trkpt lat="52.022888" lon="-1.287552"><ele>86.3</ele></trkpt>
    <trkpt lat="52.022410" lon="-1.287296"><ele>86.2</ele></trkpt>
    <trkpt lat="52.021099" lon="-1.285781"><ele>87.5</ele></trkpt>
    <trkpt lat="52.020142" lon="-1.284876"><ele>88.4</ele></trkpt>
    <trkpt lat="52.018752" lon="-1.284277"><ele>89.5</ele></trkpt>
    <trkpt lat="52.017988" lon="-1.283497"><ele>89.2</ele></trkpt>
    <trkpt lat="52.017398" lon="-1.282165"><ele>88.8</ele></trkpt>
    <trkpt lat="52.015518" lon="-1.279491"><ele>87.2</ele></trkpt>
    <trkpt lat="52.015045" lon="-1.279247"><ele>86.7</ele></trkpt>
    <trkpt lat="52.014597" lon="-1.279696"><ele>86.2</ele></trkpt>
    <trkpt lat="52.014120" lon="-1.281136"><ele>85.2</ele></trkpt>
    <trkpt lat="52.014088" lon="-1.283017"><ele>84.3</ele></trkpt>
    <trkpt lat="52.013951" lon="-1.284395"><ele>85.3</ele></trkpt>
    <trkpt lat="52.013716" lon="-1.285352"><ele>85.9</ele></trkpt>
    <trkpt lat="52.013364" lon="-1.286820"><ele>87.0</ele></trkpt>
    <trkpt lat="52.012970" lon="-1.287363"><ele>87.6</ele></trkpt>
    <trkpt lat="52.011656" lon="-1.288247"><ele>89.1</ele></trkpt>
    <trkpt lat="52.010512" lon="-1.288658"><ele>91.1</ele></trkpt>
    <trkpt lat="52.009686" lon="-1.288123"><ele>92.5</ele></trkpt>
    <trkpt lat="52.008762" lon="-1.287021"><ele>94.4</ele></trkpt>
    <trkpt lat="52.008289" lon="-1.285936"><ele>90.5</ele></trkpt>
    <trkpt lat="52.007220" lon="-1.281949"><ele>87.2</ele></trkpt>
    <trkpt lat="52.006402" lon="-1.281415"><ele>86.1</ele></trkpt>
    <trkpt lat="52.005998" lon="-1.280856"><ele>85.4</ele></trkpt>
    <trkpt lat="52.005552" lon="-1.280667"><ele>84.7</ele></trkpt>
    <trkpt lat="52.005048" lon="-1.280794"><ele>84.0</ele></trkpt>
    <trkpt lat="52.005004" lon="-1.281020"><ele>83.8</ele></trkpt>
    <trkpt lat="52.004231" lon="-1.281169"><ele>83.4</ele></trkpt>
    <trkpt lat="52.000208" lon="-1.281784"><ele>82.2</ele></trkpt>
    <trkpt lat="51.999292" lon="-1.281634"><ele>82.1</ele></trkpt>
    <trkpt lat="51.996570" lon="-1.281896"><ele>81.8</ele></trkpt>
    <trkpt lat="51.995173" lon="-1.281838"><ele>81.6</ele></trkpt>
    <trkpt lat="51.993498" lon="-1.280566"><ele>81.4</ele></trkpt>
    <trkpt lat="51.992027" lon="-1.279383"><ele>80.8</ele></trkpt>
    <trkpt lat="51.988242" lon="-1.277217"><ele>81.2</ele></trkpt>
    <trkpt lat="51.987026" lon="-1.276556"><ele>81.4</ele></trkpt>
    <trkpt lat="51.986730" lon="-1.276369"><ele>81.2</ele></trkpt>
    <trkpt lat="51.983015" lon="-1.274457"><ele>80.3</ele></trkpt>
    <trkpt lat="51.982245" lon="-1.274255"><ele>80.4</ele></trkpt>
    <trkpt lat="51.980765" lon="-1.274985"><ele>80.4</ele></trkpt>
    <trkpt lat="51.979524" lon="-1.275435"><ele>80.4</ele></trkpt>
    <trkpt lat="51.978232" lon="-1.275400"><ele>79.9</ele></trkpt>
    <trkpt lat="51.976650" lon="-1.274555"><ele>80.5</ele></trkpt>
    <trkpt lat="51.973199" lon="-1.275831"><ele>81.7</ele></trkpt>
    <trkpt lat="51.971284" lon="-1.277305"><ele>82.4</ele></trkpt>
    <trkpt lat="51.970477" lon="-1.278454"><ele>82.5</ele></trkpt>
    <trkpt lat="51.969958" lon="-1.280313"><ele>81.8</ele></trkpt>
    <trkpt lat="51.969464" lon="-1.282784"><ele>80.9</ele></trkpt>
    <trkpt lat="51.968849" lon="-1.283735"><ele>80.4</ele></trkpt>
    <trkpt lat="51.968285" lon="-1.283974"><ele>80.1</ele></trkpt>
    <trkpt lat="51.966181" lon="-1.282909"><ele>79.0</ele></trkpt>
    <trkpt lat="51.965512" lon="-1.282056"><ele>78.6</ele></trkpt>
    <trkpt lat="51.965051" lon="-1.281430"><ele>78.4</ele></trkpt>
    <trkpt lat="51.964854" lon="-1.281081"><ele>78.3</ele></trkpt>
    <trkpt lat="51.963427" lon="-1.279149"><ele>77.6</ele></trkpt>
    <trkpt lat="51.963278" lon="-1.278914"><ele>77.6</ele></trkpt>
    <trkpt lat="51.962200" lon="-1.277899"><ele>78.2</ele></trkpt>
    <trkpt lat="51.961135" lon="-1.277373"><ele>78.7</ele></trkpt>
    <trkpt lat="51.958856" lon="-1.277324"><ele>79.8</ele></trkpt>
    <trkpt lat="51.958171" lon="-1.277658"><ele>80.2</ele></trkpt>
    <trkpt lat="51.957380" lon="-1.279016"><ele>80.7</ele></trkpt>
    <trkpt lat="51.957048" lon="-1.279668"><ele>80.5</ele></trkpt>
    <trkpt lat="51.956172" lon="-1.280698"><ele>80.1</ele></trkpt>
    <trkpt lat="51.955453" lon="-1.281525"><ele>79.8</ele></trkpt>
    <trkpt lat="51.954696" lon="-1.284599"><ele>79.1</ele></trkpt>
    <trkpt lat="51.954047" lon="-1.288685"><ele>78.2</ele></trkpt>
    <trkpt lat="51.953671" lon="-1.289520"><ele>78.0</ele></trkpt>
    <trkpt lat="51.953129" lon="-1.290298"><ele>77.8</ele></trkpt>
    <trkpt lat="51.952312" lon="-1.291330"><ele>77.5</ele></trkpt>
    <trkpt lat="51.951800" lon="-1.291551"><ele>77.6</ele></trkpt>
    <trkpt lat="51.949984" lon="-1.290569"><ele>78.0</ele></trkpt>
    <trkpt lat="51.948005" lon="-1.289444"><ele>78.4</ele></trkpt>
    <trkpt lat="51.946677" lon="-1.289074"><ele>78.6</ele></trkpt>
    <trkpt lat="51.946415" lon="-1.288990"><ele>78.4</ele></trkpt>
    <trkpt lat="51.945319" lon="-1.289062"><ele>77.7</ele></trkpt>
    <trkpt lat="51.944242" lon="-1.289878"><ele>76.8</ele></trkpt>
    <trkpt lat="51.942594" lon="-1.290783"><ele>76.0</ele></trkpt>
    <trkpt lat="51.940837" lon="-1.292256"><ele>76.1</ele></trkpt>
    <trkpt lat="51.939870" lon="-1.293695"><ele>76.2</ele></trkpt>
    <trkpt lat="51.939139" lon="-1.293935"><ele>76.2</ele></trkpt>
    <trkpt lat="51.938738" lon="-1.293258"><ele>76.2</ele></trkpt>
    <trkpt lat="51.938498" lon="-1.292785"><ele>76.3</ele></trkpt>
    <trkpt lat="51.938205" lon="-1.292350"><ele>76.3</ele></trkpt>
    <trkpt lat="51.937650" lon="-1.290400"><ele>76.3</ele></trkpt>
    <trkpt lat="51.936628" lon="-1.288512"><ele>76.4</ele></trkpt>
    <trkpt lat="51.935807" lon="-1.287794"><ele>76.5</ele></trkpt>
    <trkpt lat="51.934199" lon="-1.286672"><ele>76.5</ele></trkpt>
    <trkpt lat="51.933276" lon="-1.286344"><ele>76.6</ele></trkpt>
    <trkpt lat="51.932848" lon="-1.285695"><ele>76.6</ele></trkpt>
    <trkpt lat="51.932439" lon="-1.284945"><ele>76.7</ele></trkpt>
    <trkpt lat="51.931587" lon="-1.284208"><ele>76.9</ele></trkpt>
    <trkpt lat="51.930866" lon="-1.283852"><ele>76.5</ele></trkpt>
    <trkpt lat="51.930100" lon="-1.283344"><ele>75.9</ele></trkpt>
    <trkpt lat="51.929601" lon="-1.283386"><ele>75.5</ele></trkpt>
    <trkpt lat="51.928446" lon="-1.283263"><ele>75.3</ele></trkpt>
    <trkpt lat="51.927456" lon="-1.283033"><ele>75.8</ele></trkpt>
    <trkpt lat="51.926955" lon="-1.283310"><ele>76.0</ele></trkpt>
    <trkpt lat="51.926417" lon="-1.284094"><ele>76.3</ele></trkpt>
    <trkpt lat="51.924894" lon="-1.284763"><ele>77.0</ele></trkpt>
    <trkpt lat="51.923624" lon="-1.285159"><ele>77.5</ele></trkpt>
    <trkpt lat="51.922222" lon="-1.286830"><ele>78.2</ele></trkpt>
    <trkpt lat="51.921624" lon="-1.288182"><ele>78.7</ele></trkpt>
    <trkpt lat="51.920935" lon="-1.289094"><ele>79.1</ele></trkpt>
    <trkpt lat="51.920783" lon="-1.290048"><ele>79.3</ele></trkpt>
    <trkpt lat="51.920901" lon="-1.291087"><ele>79.0</ele></trkpt>
    <trkpt lat="51.920676" lon="-1.293318"><ele>78.2</ele></trkpt>
    <trkpt lat="51.920799" lon="-1.295624"><ele>77.4</ele></trkpt>
    <trkpt lat="51.920770" lon="-1.297096"><ele>76.9</ele></trkpt>
    <trkpt lat="51.920089" lon="-1.298397"><ele>76.3</ele></trkpt>
    <trkpt lat="51.919778" lon="-1.298593"><ele>76.1</ele></trkpt>
    <trkpt lat="51.918592" lon="-1.299211"><ele>75.4</ele></trkpt>
    <trkpt lat="51.918298" lon="-1.299298"><ele>75.2</ele></trkpt>
    <trkpt lat="51.916282" lon="-1.299180"><ele>74.4</ele></trkpt>
    <trkpt lat="51.914420" lon="-1.299176"><ele>73.6</ele></trkpt>
    <trkpt lat="51.914214" lon="-1.298998"><ele>73.5</ele></trkpt>
    <trkpt lat="51.913683" lon="-1.298722"><ele>73.5</ele></trkpt>
    <trkpt lat="51.912437" lon="-1.298175"><ele>73.4</ele></trkpt>
    <trkpt lat="51.911074" lon="-1.297977"><ele>73.2</ele></trkpt>
    <trkpt lat="51.909269" lon="-1.298246"><ele>73.1</ele></trkpt>
    <trkpt lat="51.908302" lon="-1.298721"><ele>73.0</ele></trkpt>
    <trkpt lat="51.906076" lon="-1.299823"><ele>72.8</ele></trkpt>
    <trkpt lat="51.904939" lon="-1.299916"><ele>72.6</ele></trkpt>
    <trkpt lat="51.904316" lon="-1.298586"><ele>72.5</ele></trkpt>
    <trkpt lat="51.903738" lon="-1.297267"><ele>72.4</ele></trkpt>
    <trkpt lat="51.903291" lon="-1.296598"><ele>72.3</ele></trkpt>
    <trkpt lat="51.901911" lon="-1.295396"><ele>72.1</ele></trkpt>
    <trkpt lat="51.900027" lon="-1.293835"><ele>71.9</ele></trkpt>
    <trkpt lat="51.899502" lon="-1.293456"><ele>71.8</ele></trkpt>
    <trkpt lat="51.896793" lon="-1.291104"><ele>71.6</ele></trkpt>
    <trkpt lat="51.895906" lon="-1.290794"><ele>71.5</ele></trkpt>
    <trkpt lat="51.894254" lon="-1.289808"><ele>71.9</ele></trkpt>
    <trkpt lat="51.893377" lon="-1.289747"><ele>72.0</ele></trkpt>
    <trkpt lat="51.892528" lon="-1.291947"><ele>72.3</ele></trkpt>
    <trkpt lat="51.891727" lon="-1.293815"><ele>72.6</ele></trkpt>
    <trkpt lat="51.889985" lon="-1.296022"><ele>73.0</ele></trkpt>
    <trkpt lat="51.889281" lon="-1.296599"><ele>73.2</ele></trkpt>
    <trkpt lat="51.888040" lon="-1.296858"><ele>73.4</ele></trkpt>
    <trkpt lat="51.887347" lon="-1.296365"><ele>73.5</ele></trkpt>
    <trkpt lat="51.886101" lon="-1.294810"><ele>73.8</ele></trkpt>
    <trkpt lat="51.885464" lon="-1.293967"><ele>74.0</ele></trkpt>
    <trkpt lat="51.882113" lon="-1.288892"><ele>75.0</ele></trkpt>
    <trkpt lat="51.879798" lon="-1.287475"><ele>75.7</ele></trkpt>
    <trkpt lat="51.877966" lon="-1.286563"><ele>76.2</ele></trkpt>
    <trkpt lat="51.877041" lon="-1.285702"><ele>76.5</ele></trkpt>
    <trkpt lat="51.875557" lon="-1.285583"><ele>77.0</ele></trkpt>
    <trkpt lat="51.874774" lon="-1.286059"><ele>77.2</ele></trkpt>
    <trkpt lat="51.873424" lon="-1.288102"><ele>78.2</ele></trkpt>
    <trkpt lat="51.872847" lon="-1.289800"><ele>76.0</ele></trkpt>
    <trkpt lat="51.872186" lon="-1.291870"><ele>73.4</ele></trkpt>
    <trkpt lat="51.871513" lon="-1.292839"><ele>71.7</ele></trkpt>
    <trkpt lat="51.871019" lon="-1.294272"><ele>70.1</ele></trkpt>
    <trkpt lat="51.870224" lon="-1.296717"><ele>70.2</ele></trkpt>
    <trkpt lat="51.869099" lon="-1.298529"><ele>69.9</ele></trkpt>
    <trkpt lat="51.868869" lon="-1.298635"><ele>69.9</ele></trkpt>
    <trkpt lat="51.868487" lon="-1.298705"><ele>69.8</ele></trkpt>
    <trkpt lat="51.867683" lon="-1.298008"><ele>69.7</ele></trkpt>
    <trkpt lat="51.866176" lon="-1.295754"><ele>69.3</ele></trkpt>
    <trkpt lat="51.864904" lon="-1.293992"><ele>69.0</ele></trkpt>
    <trkpt lat="51.863692" lon="-1.292747"><ele>68.0</ele></trkpt>
    <trkpt lat="51.863128" lon="-1.292862"><ele>69.1</ele></trkpt>
    <trkpt lat="51.861603" lon="-1.294000"><ele>72.4</ele></trkpt>
    <trkpt lat="51.861092" lon="-1.295335"><ele>74.3</ele></trkpt>
    <trkpt lat="51.861010" lon="-1.296861"><ele>76.6</ele></trkpt>
    <trkpt lat="51.861070" lon="-1.298852"><ele>74.9</ele></trkpt>
    <trkpt lat="51.861192" lon="-1.301228"><ele>72.0</ele></trkpt>
    <trkpt lat="51.861096" lon="-1.302219"><ele>71.0</ele></trkpt>
    <trkpt lat="51.860929" lon="-1.303980"><ele>69.3</ele></trkpt>
    <trkpt lat="51.860849" lon="-1.304324"><ele>69.1</ele></trkpt>
    <trkpt lat="51.860698" lon="-1.305203"><ele>68.0</ele></trkpt>
    <trkpt lat="51.860349" lon="-1.306855"><ele>68.5</ele></trkpt>
    <trkpt lat="51.859779" lon="-1.307482"><ele>68.8</ele></trkpt>
    <trkpt lat="51.859241" lon="-1.307444"><ele>69.0</ele></trkpt>
    <trkpt lat="51.857784" lon="-1.306170"><ele>69.7</ele></trkpt>
    <trkpt lat="51.857239" lon="-1.305714"><ele>70.0</ele></trkpt>
    <trkpt lat="51.856431" lon="-1.305170"><ele>70.3</ele></trkpt>
    <trkpt lat="51.855809" lon="-1.303579"><ele>70.6</ele></trkpt>
    <trkpt lat="51.855926" lon="-1.302619"><ele>70.3</ele></trkpt>
    <trkpt lat="51.855385" lon="-1.301780"><ele>69.9</ele></trkpt>
    <trkpt lat="51.854898" lon="-1.300242"><ele>69.4</ele></trkpt>
    <trkpt lat="51.855034" lon="-1.299221"><ele>69.0</ele></trkpt>
    <trkpt lat="51.854649" lon="-1.298822"><ele>68.8</ele></trkpt>
    <trkpt lat="51.854052" lon="-1.298741"><ele>68.5</ele></trkpt>
    <trkpt lat="51.853851" lon="-1.297647"><ele>68.1</ele></trkpt>
    <trkpt lat="51.852826" lon="-1.297204"><ele>67.5</ele></trkpt>
    <trkpt lat="51.851728" lon="-1.296388"><ele>66.8</ele></trkpt>
    <trkpt lat="51.851003" lon="-1.295206"><ele>66.2</ele></trkpt>
    <trkpt lat="51.850061" lon="-1.294152"><ele>65.5</ele></trkpt>
    <trkpt lat="51.849326" lon="-1.293587"><ele>65.0</ele></trkpt>
    <trkpt lat="51.849281" lon="-1.293385"><ele>65.0</ele></trkpt>
    <trkpt lat="51.848236" lon="-1.293233"><ele>65.1</ele></trkpt>
    <trkpt lat="51.847587" lon="-1.294038"><ele>65.1</ele></trkpt>
    <trkpt lat="51.847321" lon="-1.296253"><ele>65.2</ele></trkpt>
    <trkpt lat="51.847307" lon="-1.297778"><ele>65.5</ele></trkpt>
    <trkpt lat="51.847415" lon="-1.299557"><ele>66.4</ele></trkpt>
    <trkpt lat="51.846881" lon="-1.301175"><ele>67.3</ele></trkpt>
    <trkpt lat="51.845813" lon="-1.303305"><ele>68.5</ele></trkpt>
    <trkpt lat="51.845362" lon="-1.303783"><ele>68.8</ele></trkpt>
    <trkpt lat="51.844578" lon="-1.304349"><ele>68.3</ele></trkpt>
    <trkpt lat="51.844018" lon="-1.304308"><ele>67.9</ele></trkpt>
    <trkpt lat="51.843527" lon="-1.303633"><ele>67.5</ele></trkpt>
    <trkpt lat="51.842660" lon="-1.302861"><ele>66.8</ele></trkpt>
    <trkpt lat="51.841429" lon="-1.301902"><ele>66.0</ele></trkpt>
    <trkpt lat="51.840352" lon="-1.300380"><ele>65.4</ele></trkpt>
    <trkpt lat="51.840050" lon="-1.300704"><ele>65.4</ele></trkpt>
    <trkpt lat="51.840181" lon="-1.300781"><ele>65.7</ele></trkpt>
    <trkpt lat="51.840068" lon="-1.301020"><ele>65.5</ele></trkpt>
    <trkpt lat="51.838542" lon="-1.303583"><ele>66.0</ele></trkpt>
    <trkpt lat="51.837927" lon="-1.304517"><ele>66.7</ele></trkpt>
    <trkpt lat="51.837133" lon="-1.304993"><ele>66.1</ele></trkpt>
    <trkpt lat="51.836155" lon="-1.305041"><ele>65.6</ele></trkpt>
    <trkpt lat="51.835346" lon="-1.304438"><ele>65.1</ele></trkpt>
    <trkpt lat="51.834448" lon="-1.303721"><ele>65.0</ele></trkpt>
    <trkpt lat="51.832781" lon="-1.302076"><ele>65.0</ele></trkpt>
    <trkpt lat="51.832308" lon="-1.301446"><ele>65.7</ele></trkpt>
    <trkpt lat="51.831607" lon="-1.301532"><ele>65.9</ele></trkpt>
    <trkpt lat="51.829838" lon="-1.303224"><ele>65.5</ele></trkpt>
    <trkpt lat="51.828635" lon="-1.303728"><ele>65.3</ele></trkpt>
    <trkpt lat="51.827433" lon="-1.303667"><ele>65.1</ele></trkpt>
    <trkpt lat="51.825632" lon="-1.302554"><ele>64.9</ele></trkpt>
    <trkpt lat="51.824615" lon="-1.301541"><ele>64.6</ele></trkpt>
    <trkpt lat="51.823570" lon="-1.300635"><ele>64.4</ele></trkpt>
    <trkpt lat="51.822580" lon="-1.299628"><ele>64.2</ele></trkpt>
    <trkpt lat="51.822299" lon="-1.299398"><ele>63.8</ele></trkpt>
    <trkpt lat="51.821398" lon="-1.298391"><ele>63.4</ele></trkpt>
    <trkpt lat="51.820313" lon="-1.297568"><ele>63.0</ele></trkpt>
    <trkpt lat="51.819273" lon="-1.296248"><ele>62.6</ele></trkpt>
    <trkpt lat="51.818054" lon="-1.294567"><ele>62.1</ele></trkpt>
    <trkpt lat="51.817583" lon="-1.293994"><ele>62.2</ele></trkpt>
    <trkpt lat="51.816529" lon="-1.292268"><ele>62.7</ele></trkpt>
    <trkpt lat="51.816438" lon="-1.291733"><ele>62.8</ele></trkpt>
    <trkpt lat="51.815983" lon="-1.290421"><ele>62.3</ele></trkpt>
    <trkpt lat="51.815564" lon="-1.289600"><ele>61.9</ele></trkpt>
    <trkpt lat="51.814352" lon="-1.288204"><ele>61.2</ele></trkpt>
    <trkpt lat="51.813532" lon="-1.288173"><ele>60.9</ele></trkpt>
    <trkpt lat="51.812016" lon="-1.288112"><ele>60.5</ele></trkpt>
    <trkpt lat="51.810482" lon="-1.288431"><ele>60.7</ele></trkpt>
    <trkpt lat="51.808947" lon="-1.288613"><ele>60.9</ele></trkpt>
    <trkpt lat="51.807217" lon="-1.288946"><ele>61.0</ele></trkpt>
    <trkpt lat="51.804677" lon="-1.289229"><ele>61.3</ele></trkpt>
    <trkpt lat="51.804109" lon="-1.289374"><ele>60.9</ele></trkpt>
    <trkpt lat="51.801195" lon="-1.290361"><ele>61.6</ele></trkpt>
    <trkpt lat="51.800498" lon="-1.291361"><ele>61.3</ele></trkpt>
    <trkpt lat="51.800154" lon="-1.291803"><ele>61.1</ele></trkpt>
    <trkpt lat="51.798224" lon="-1.292239"><ele>60.5</ele></trkpt>
    <trkpt lat="51.796923" lon="-1.292588"><ele>60.2</ele></trkpt>
    <trkpt lat="51.795509" lon="-1.293112"><ele>60.4</ele></trkpt>
    <trkpt lat="51.792906" lon="-1.293737"><ele>60.8</ele></trkpt>
    <trkpt lat="51.792465" lon="-1.293880"><ele>60.9</ele></trkpt>
    <trkpt lat="51.792254" lon="-1.293964"><ele>61.2</ele></trkpt>
    <trkpt lat="51.791733" lon="-1.293372"><ele>62.0</ele></trkpt>
    <trkpt lat="51.790429" lon="-1.291802"><ele>62.1</ele></trkpt>
    <trkpt lat="51.789923" lon="-1.291317"><ele>62.5</ele></trkpt>
    <trkpt lat="51.789355" lon="-1.290930"><ele>62.8</ele></trkpt>
    <trkpt lat="51.787546" lon="-1.289094"><ele>61.8</ele></trkpt>
    <trkpt lat="51.785756" lon="-1.286624"><ele>62.5</ele></trkpt>
    <trkpt lat="51.785195" lon="-1.285907"><ele>62.5</ele></trkpt>
    <trkpt lat="51.784899" lon="-1.285642"><ele>61.5</ele></trkpt>
    <trkpt lat="51.782855" lon="-1.283499"><ele>58.1</ele></trkpt>
    <trkpt lat="51.782122" lon="-1.282626"><ele>58.1</ele></trkpt>
    <trkpt lat="51.781284" lon="-1.281874"><ele>58.1</ele></trkpt>
    <trkpt lat="51.779882" lon="-1.279640"><ele>58.6</ele></trkpt>
    <trkpt lat="51.779158" lon="-1.278377"><ele>58.9</ele></trkpt>
    <trkpt lat="51.778718" lon="-1.277842"><ele>58.8</ele></trkpt>
    <trkpt lat="51.776599" lon="-1.275793"><ele>58.4</ele></trkpt>
    <trkpt lat="51.775329" lon="-1.274440"><ele>58.1</ele></trkpt>
    <trkpt lat="51.773713" lon="-1.272799"><ele>58.7</ele></trkpt>
    <trkpt lat="51.771203" lon="-1.271065"><ele>60.2</ele></trkpt>
    <trkpt lat="51.770125" lon="-1.270542"><ele>60.8</ele></trkpt>
    <trkpt lat="51.768416" lon="-1.270012"><ele>60.2</ele></trkpt>
    <trkpt lat="51.767425" lon="-1.269914"><ele>60.2</ele></trkpt>
    <trkpt lat="51.765375" lon="-1.270504"><ele>60.1</ele></trkpt>
    <trkpt lat="51.764657" lon="-1.270843"><ele>60.2</ele></trkpt>
    <trkpt lat="51.762920" lon="-1.271028"><ele>60.9</ele></trkpt>
    <trkpt lat="51.762328" lon="-1.270937"><ele>61.0</ele></trkpt>
    <trkpt lat="51.762021" lon="-1.270971"><ele>61.1</ele></trkpt>
    <trkpt lat="51.759775" lon="-1.270903"><ele>58.5</ele></trkpt>
    <trkpt lat="51.758505" lon="-1.270835"><ele>58.5</ele></trkpt>
    <trkpt lat="51.756989" lon="-1.270253"><ele>58.9</ele></trkpt>
    <trkpt lat="51.756422" lon="-1.269850"><ele>60.1</ele></trkpt>
    <trkpt lat="51.756178" lon="-1.269542"><ele>60.7</ele></trkpt>
    <trkpt lat="51.756093" lon="-1.269291"><ele>61.0</ele></trkpt>
    <trkpt lat="51.755329" lon="-1.268049"><ele>60.9</ele></trkpt>
    <trkpt lat="51.753851" lon="-1.265095"><ele>60.7</ele></trkpt>
    <trkpt lat="51.753605" lon="-1.264871"><ele>60.7</ele></trkpt>
  </trkseg></trk>
</gpx>
