<?xml version="1.0" encoding="UTF-8"?>
<gpx version="1.1" creator="OX Trails — oxtrails.org.uk" xmlns="http://www.topografix.com/GPX/1/1">
  <metadata><name>Drayton Loop</name><author><name>OX Trails</name></author></metadata>
  <trk><name>Drayton Loop</name><type>cycling</type><trkseg>
    <trkpt lat="51.657127" lon="-1.284347"><ele>50.5</ele></trkpt>
    <trkpt lat="51.657132" lon="-1.284338"><ele>50.5</ele></trkpt>
    <trkpt lat="51.657049" lon="-1.284238"><ele>50.5</ele></trkpt>
    <trkpt lat="51.656665" lon="-1.284222"><ele>50.3</ele></trkpt>
    <trkpt lat="51.655188" lon="-1.284560"><ele>50.1</ele></trkpt>
    <trkpt lat="51.654700" lon="-1.284917"><ele>50.1</ele></trkpt>
    <trkpt lat="51.654247" lon="-1.285304"><ele>50.7</ele></trkpt>
    <trkpt lat="51.653893" lon="-1.285637"><ele>51.2</ele></trkpt>
    <trkpt lat="51.653389" lon="-1.286113"><ele>51.3</ele></trkpt>
    <trkpt lat="51.652469" lon="-1.287106"><ele>51.3</ele></trkpt>
    <trkpt lat="51.652103" lon="-1.287480"><ele>51.7</ele></trkpt>
    <trkpt lat="51.651618" lon="-1.287931"><ele>51.7</ele></trkpt>
    <trkpt lat="51.651349" lon="-1.288209"><ele>51.7</ele></trkpt>
    <trkpt lat="51.650673" lon="-1.288817"><ele>52.2</ele></trkpt>
    <trkpt lat="51.650089" lon="-1.289079"><ele>52.1</ele></trkpt>
    <trkpt lat="51.649050" lon="-1.289626"><ele>52.0</ele></trkpt>
    <trkpt lat="51.648993" lon="-1.289709"><ele>52.0</ele></trkpt>
    <trkpt lat="51.649062" lon="-1.290210"><ele>51.7</ele></trkpt>
    <trkpt lat="51.649198" lon="-1.291218"><ele>51.4</ele></trkpt>
    <trkpt lat="51.649347" lon="-1.292444"><ele>47.9</ele></trkpt>
    <trkpt lat="51.649428" lon="-1.293044"><ele>49.1</ele></trkpt>
    <trkpt lat="51.649826" lon="-1.295971"><ele>49.1</ele></trkpt>
    <trkpt lat="51.650014" lon="-1.297352"><ele>50.4</ele></trkpt>
    <trkpt lat="51.650131" lon="-1.298356"><ele>52.4</ele></trkpt>
    <trkpt lat="51.650245" lon="-1.298964"><ele>53.4</ele></trkpt>
    <trkpt lat="51.650278" lon="-1.299137"><ele>54.4</ele></trkpt>
    <trkpt lat="51.650316" lon="-1.299237"><ele>54.7</ele></trkpt>
    <trkpt lat="51.650254" lon="-1.299355"><ele>54.8</ele></trkpt>
    <trkpt lat="51.649911" lon="-1.299836"><ele>55.1</ele></trkpt>
    <trkpt lat="51.649619" lon="-1.300060"><ele>55.2</ele></trkpt>
    <trkpt lat="51.649409" lon="-1.300162"><ele>55.3</ele></trkpt>
    <trkpt lat="51.648509" lon="-1.299938"><ele>55.7</ele></trkpt>
    <trkpt lat="51.648479" lon="-1.300017"><ele>55.8</ele></trkpt>
    <trkpt lat="51.648406" lon="-1.300463"><ele>56.1</ele></trkpt>
    <trkpt lat="51.648129" lon="-1.301227"><ele>56.9</ele></trkpt>
    <trkpt lat="51.647960" lon="-1.301815"><ele>57.5</ele></trkpt>
    <trkpt lat="51.647930" lon="-1.302361"><ele>58.0</ele></trkpt>
    <trkpt lat="51.647864" lon="-1.302984"><ele>58.9</ele></trkpt>
    <trkpt lat="51.647797" lon="-1.303739"><ele>59.2</ele></trkpt>
    <trkpt lat="51.647762" lon="-1.304682"><ele>60.0</ele></trkpt>
    <trkpt lat="51.647770" lon="-1.304781"><ele>60.1</ele></trkpt>
    <trkpt lat="51.647888" lon="-1.305322"><ele>60.6</ele></trkpt>
    <trkpt lat="51.647955" lon="-1.305776"><ele>61.1</ele></trkpt>
    <trkpt lat="51.648022" lon="-1.305887"><ele>61.2</ele></trkpt>
    <trkpt lat="51.648163" lon="-1.306017"><ele>61.4</ele></trkpt>
    <trkpt lat="51.648202" lon="-1.306130"><ele>61.6</ele></trkpt>
    <trkpt lat="51.647536" lon="-1.306163"><ele>61.7</ele></trkpt>
    <trkpt lat="51.647377" lon="-1.306105"><ele>62.0</ele></trkpt>
    <trkpt lat="51.647291" lon="-1.306073"><ele>62.2</ele></trkpt>
    <trkpt lat="51.647159" lon="-1.305893"><ele>62.1</ele></trkpt>
    <trkpt lat="51.646831" lon="-1.305570"><ele>61.8</ele></trkpt>
    <trkpt lat="51.646565" lon="-1.305476"><ele>61.6</ele></trkpt>
    <trkpt lat="51.646506" lon="-1.305484"><ele>61.5</ele></trkpt>
    <trkpt lat="51.646258" lon="-1.305518"><ele>61.4</ele></trkpt>
    <trkpt lat="51.646160" lon="-1.305330"><ele>61.2</ele></trkpt>
    <trkpt lat="51.645473" lon="-1.304282"><ele>60.0</ele></trkpt>
    <trkpt lat="51.645189" lon="-1.303920"><ele>59.5</ele></trkpt>
    <trkpt lat="51.644958" lon="-1.303647"><ele>59.5</ele></trkpt>
    <trkpt lat="51.644542" lon="-1.303157"><ele>59.4</ele></trkpt>
    <trkpt lat="51.644290" lon="-1.302969"><ele>59.3</ele></trkpt>
    <trkpt lat="51.644151" lon="-1.302871"><ele>59.2</ele></trkpt>
    <trkpt lat="51.644297" lon="-1.302431"><ele>59.0</ele></trkpt>
    <trkpt lat="51.644526" lon="-1.301542"><ele>58.5</ele></trkpt>
    <trkpt lat="51.644670" lon="-1.300919"><ele>58.3</ele></trkpt>
    <trkpt lat="51.644772" lon="-1.300352"><ele>58.0</ele></trkpt>
    <trkpt lat="51.644804" lon="-1.300074"><ele>57.7</ele></trkpt>
    <trkpt lat="51.644839" lon="-1.299525"><ele>57.2</ele></trkpt>
    <trkpt lat="51.644848" lon="-1.299139"><ele>57.0</ele></trkpt>
    <trkpt lat="51.644850" lon="-1.298463"><ele>57.0</ele></trkpt>
    <trkpt lat="51.644830" lon="-1.298158"><ele>57.0</ele></trkpt>
    <trkpt lat="51.644797" lon="-1.297881"><ele>57.1</ele></trkpt>
    <trkpt lat="51.644743" lon="-1.297557"><ele>57.2</ele></trkpt>
    <trkpt lat="51.644678" lon="-1.297237"><ele>57.3</ele></trkpt>
    <trkpt lat="51.644579" lon="-1.296814"><ele>57.4</ele></trkpt>
    <trkpt lat="51.644422" lon="-1.296206"><ele>57.2</ele></trkpt>
    <trkpt lat="51.644151" lon="-1.295267"><ele>56.4</ele></trkpt>
    <trkpt lat="51.643971" lon="-1.294738"><ele>56.4</ele></trkpt>
    <trkpt lat="51.643470" lon="-1.293446"><ele>56.5</ele></trkpt>
    <trkpt lat="51.643381" lon="-1.293162"><ele>56.4</ele></trkpt>
    <trkpt lat="51.643307" lon="-1.292863"><ele>56.4</ele></trkpt>
    <trkpt lat="51.643266" lon="-1.292660"><ele>56.3</ele></trkpt>
    <trkpt lat="51.643226" lon="-1.292400"><ele>56.0</ele></trkpt>
    <trkpt lat="51.643207" lon="-1.292141"><ele>55.6</ele></trkpt>
    <trkpt lat="51.643211" lon="-1.291868"><ele>55.2</ele></trkpt>
    <trkpt lat="51.643229" lon="-1.291508"><ele>54.7</ele></trkpt>
    <trkpt lat="51.643230" lon="-1.291235"><ele>54.3</ele></trkpt>
    <trkpt lat="51.643211" lon="-1.290965"><ele>53.9</ele></trkpt>
    <trkpt lat="51.643179" lon="-1.290748"><ele>53.9</ele></trkpt>
    <trkpt lat="51.643134" lon="-1.290525"><ele>53.9</ele></trkpt>
    <trkpt lat="51.643055" lon="-1.290234"><ele>53.9</ele></trkpt>
    <trkpt lat="51.642773" lon="-1.289352"><ele>54.0</ele></trkpt>
    <trkpt lat="51.642721" lon="-1.289143"><ele>54.1</ele></trkpt>
    <trkpt lat="51.642520" lon="-1.288151"><ele>54.3</ele></trkpt>
    <trkpt lat="51.642356" lon="-1.287501"><ele>54.3</ele></trkpt>
    <trkpt lat="51.642286" lon="-1.287154"><ele>54.1</ele></trkpt>
    <trkpt lat="51.642232" lon="-1.286806"><ele>54.0</ele></trkpt>
    <trkpt lat="51.642193" lon="-1.286459"><ele>53.9</ele></trkpt>
    <trkpt lat="51.642184" lon="-1.286043"><ele>53.7</ele></trkpt>
    <trkpt lat="51.642104" lon="-1.285043"><ele>53.4</ele></trkpt>
    <trkpt lat="51.641982" lon="-1.284001"><ele>52.9</ele></trkpt>
    <trkpt lat="51.642014" lon="-1.283426"><ele>52.9</ele></trkpt>
    <trkpt lat="51.642019" lon="-1.283034"><ele>52.9</ele></trkpt>
    <trkpt lat="51.642022" lon="-1.282827"><ele>52.8</ele></trkpt>
    <trkpt lat="51.642059" lon="-1.282484"><ele>52.8</ele></trkpt>
    <trkpt lat="51.642129" lon="-1.282024"><ele>52.8</ele></trkpt>
    <trkpt lat="51.642252" lon="-1.281315"><ele>53.3</ele></trkpt>
    <trkpt lat="51.642406" lon="-1.280627"><ele>53.7</ele></trkpt>
    <trkpt lat="51.642453" lon="-1.280335"><ele>53.9</ele></trkpt>
    <trkpt lat="51.642486" lon="-1.280022"><ele>54.1</ele></trkpt>
    <trkpt lat="51.642489" lon="-1.279840"><ele>54.3</ele></trkpt>
    <trkpt lat="51.642471" lon="-1.279455"><ele>54.6</ele></trkpt>
    <trkpt lat="51.642416" lon="-1.278950"><ele>54.6</ele></trkpt>
    <trkpt lat="51.642377" lon="-1.278238"><ele>54.1</ele></trkpt>
    <trkpt lat="51.642299" lon="-1.277220"><ele>53.4</ele></trkpt>
    <trkpt lat="51.642277" lon="-1.276867"><ele>53.4</ele></trkpt>
    <trkpt lat="51.642240" lon="-1.276770"><ele>53.3</ele></trkpt>
    <trkpt lat="51.642196" lon="-1.276685"><ele>53.2</ele></trkpt>
    <trkpt lat="51.642062" lon="-1.276444"><ele>53.1</ele></trkpt>
    <trkpt lat="51.642024" lon="-1.276398"><ele>53.1</ele></trkpt>
    <trkpt lat="51.641872" lon="-1.276302"><ele>53.1</ele></trkpt>
    <trkpt lat="51.641805" lon="-1.276282"><ele>53.2</ele></trkpt>
    <trkpt lat="51.641701" lon="-1.276281"><ele>53.3</ele></trkpt>
    <trkpt lat="51.641583" lon="-1.276309"><ele>53.4</ele></trkpt>
    <trkpt lat="51.641490" lon="-1.276349"><ele>53.5</ele></trkpt>
    <trkpt lat="51.641390" lon="-1.276414"><ele>53.6</ele></trkpt>
    <trkpt lat="51.640517" lon="-1.277094"><ele>54.0</ele></trkpt>
    <trkpt lat="51.640293" lon="-1.277301"><ele>54.0</ele></trkpt>
    <trkpt lat="51.640129" lon="-1.277476"><ele>54.4</ele></trkpt>
    <trkpt lat="51.639805" lon="-1.277718"><ele>55.2</ele></trkpt>
    <trkpt lat="51.639476" lon="-1.277934"><ele>55.5</ele></trkpt>
    <trkpt lat="51.639269" lon="-1.278043"><ele>55.8</ele></trkpt>
    <trkpt lat="51.639118" lon="-1.278108"><ele>56.0</ele></trkpt>
    <trkpt lat="51.638952" lon="-1.278174"><ele>56.4</ele></trkpt>
    <trkpt lat="51.638233" lon="-1.278421"><ele>57.1</ele></trkpt>
    <trkpt lat="51.637981" lon="-1.278490"><ele>57.1</ele></trkpt>
    <trkpt lat="51.637510" lon="-1.278681"><ele>57.0</ele></trkpt>
    <trkpt lat="51.637591" lon="-1.279045"><ele>57.0</ele></trkpt>
    <trkpt lat="51.637759" lon="-1.279597"><ele>56.7</ele></trkpt>
    <trkpt lat="51.637946" lon="-1.280320"><ele>56.0</ele></trkpt>
    <trkpt lat="51.637964" lon="-1.280438"><ele>55.9</ele></trkpt>
    <trkpt lat="51.637966" lon="-1.280535"><ele>55.9</ele></trkpt>
    <trkpt lat="51.638037" lon="-1.281008"><ele>55.6</ele></trkpt>
    <trkpt lat="51.638052" lon="-1.281183"><ele>55.4</ele></trkpt>
    <trkpt lat="51.638079" lon="-1.281297"><ele>55.2</ele></trkpt>
    <trkpt lat="51.638121" lon="-1.281394"><ele>55.1</ele></trkpt>
    <trkpt lat="51.638145" lon="-1.281478"><ele>55.0</ele></trkpt>
    <trkpt lat="51.638157" lon="-1.281591"><ele>54.9</ele></trkpt>
    <trkpt lat="51.638144" lon="-1.281761"><ele>54.7</ele></trkpt>
    <trkpt lat="51.638086" lon="-1.281995"><ele>54.5</ele></trkpt>
    <trkpt lat="51.638076" lon="-1.282110"><ele>54.4</ele></trkpt>
    <trkpt lat="51.638088" lon="-1.282238"><ele>54.3</ele></trkpt>
    <trkpt lat="51.638142" lon="-1.282433"><ele>54.2</ele></trkpt>
    <trkpt lat="51.638259" lon="-1.282737"><ele>54.1</ele></trkpt>
    <trkpt lat="51.638361" lon="-1.282975"><ele>54.0</ele></trkpt>
    <trkpt lat="51.638409" lon="-1.283072"><ele>54.0</ele></trkpt>
    <trkpt lat="51.638485" lon="-1.283263"><ele>54.0</ele></trkpt>
    <trkpt lat="51.638608" lon="-1.283636"><ele>54.0</ele></trkpt>
    <trkpt lat="51.638805" lon="-1.284292"><ele>54.3</ele></trkpt>
    <trkpt lat="51.638954" lon="-1.285039"><ele>55.0</ele></trkpt>
    <trkpt lat="51.639175" lon="-1.285877"><ele>56.3</ele></trkpt>
    <trkpt lat="51.639401" lon="-1.286816"><ele>56.9</ele></trkpt>
    <trkpt lat="51.639865" lon="-1.288292"><ele>56.9</ele></trkpt>
    <trkpt lat="51.640094" lon="-1.289099"><ele>56.9</ele></trkpt>
    <trkpt lat="51.640422" lon="-1.290892"><ele>56.8</ele></trkpt>
    <trkpt lat="51.640541" lon="-1.291614"><ele>57.1</ele></trkpt>
    <trkpt lat="51.640647" lon="-1.292450"><ele>57.3</ele></trkpt>
    <trkpt lat="51.640749" lon="-1.293245"><ele>57.6</ele></trkpt>
    <trkpt lat="51.640829" lon="-1.294554"><ele>58.0</ele></trkpt>
    <trkpt lat="51.640861" lon="-1.295368"><ele>58.0</ele></trkpt>
    <trkpt lat="51.640875" lon="-1.296579"><ele>58.3</ele></trkpt>
    <trkpt lat="51.640855" lon="-1.297354"><ele>58.7</ele></trkpt>
    <trkpt lat="51.640833" lon="-1.297836"><ele>58.8</ele></trkpt>
    <trkpt lat="51.640796" lon="-1.298227"><ele>58.8</ele></trkpt>
    <trkpt lat="51.640746" lon="-1.298589"><ele>58.9</ele></trkpt>
    <trkpt lat="51.640664" lon="-1.299013"><ele>58.9</ele></trkpt>
    <trkpt lat="51.640451" lon="-1.299971"><ele>58.9</ele></trkpt>
    <trkpt lat="51.640340" lon="-1.300620"><ele>58.7</ele></trkpt>
    <trkpt lat="51.640261" lon="-1.301320"><ele>58.6</ele></trkpt>
    <trkpt lat="51.640244" lon="-1.301474"><ele>58.5</ele></trkpt>
    <trkpt lat="51.640131" lon="-1.302986"><ele>58.0</ele></trkpt>
    <trkpt lat="51.640080" lon="-1.303801"><ele>57.8</ele></trkpt>
    <trkpt lat="51.639918" lon="-1.305999"><ele>58.5</ele></trkpt>
    <trkpt lat="51.639960" lon="-1.306703"><ele>58.8</ele></trkpt>
    <trkpt lat="51.639934" lon="-1.307484"><ele>58.8</ele></trkpt>
    <trkpt lat="51.639931" lon="-1.307567"><ele>58.9</ele></trkpt>
    <trkpt lat="51.639955" lon="-1.307905"><ele>58.9</ele></trkpt>
    <trkpt lat="51.640078" lon="-1.308497"><ele>59.0</ele></trkpt>
    <trkpt lat="51.640136" lon="-1.309201"><ele>59.0</ele></trkpt>
    <trkpt lat="51.640163" lon="-1.309613"><ele>59.0</ele></trkpt>
    <trkpt lat="51.640218" lon="-1.310100"><ele>59.1</ele></trkpt>
    <trkpt lat="51.640260" lon="-1.311223"><ele>59.2</ele></trkpt>
    <trkpt lat="51.640253" lon="-1.311569"><ele>59.6</ele></trkpt>
    <trkpt lat="51.640238" lon="-1.311923"><ele>60.1</ele></trkpt>
    <trkpt lat="51.640219" lon="-1.312345"><ele>60.5</ele></trkpt>
    <trkpt lat="51.640246" lon="-1.312883"><ele>61.1</ele></trkpt>
    <trkpt lat="51.640273" lon="-1.313048"><ele>61.2</ele></trkpt>
    <trkpt lat="51.640329" lon="-1.313295"><ele>61.4</ele></trkpt>
    <trkpt lat="51.640389" lon="-1.313477"><ele>61.5</ele></trkpt>
    <trkpt lat="51.640469" lon="-1.313684"><ele>61.6</ele></trkpt>
    <trkpt lat="51.640522" lon="-1.313770"><ele>61.7</ele></trkpt>
    <trkpt lat="51.640581" lon="-1.313943"><ele>61.7</ele></trkpt>
    <trkpt lat="51.640588" lon="-1.314087"><ele>61.6</ele></trkpt>
    <trkpt lat="51.641386" lon="-1.314226"><ele>60.7</ele></trkpt>
    <trkpt lat="51.641721" lon="-1.314241"><ele>60.3</ele></trkpt>
    <trkpt lat="51.641700" lon="-1.314833"><ele>59.8</ele></trkpt>
    <trkpt lat="51.641666" lon="-1.315482"><ele>59.4</ele></trkpt>
    <trkpt lat="51.641675" lon="-1.315596"><ele>59.3</ele></trkpt>
    <trkpt lat="51.641701" lon="-1.315665"><ele>59.3</ele></trkpt>
    <trkpt lat="51.641766" lon="-1.315746"><ele>59.3</ele></trkpt>
    <trkpt lat="51.641826" lon="-1.315778"><ele>59.3</ele></trkpt>
    <trkpt lat="51.642027" lon="-1.315787"><ele>59.4</ele></trkpt>
    <trkpt lat="51.642839" lon="-1.315821"><ele>59.4</ele></trkpt>
    <trkpt lat="51.643375" lon="-1.315875"><ele>59.4</ele></trkpt>
    <trkpt lat="51.643345" lon="-1.316552"><ele>59.4</ele></trkpt>
    <trkpt lat="51.643323" lon="-1.317369"><ele>59.3</ele></trkpt>
    <trkpt lat="51.643347" lon="-1.318786"><ele>59.2</ele></trkpt>
    <trkpt lat="51.643347" lon="-1.318939"><ele>59.2</ele></trkpt>
    <trkpt lat="51.643326" lon="-1.319209"><ele>59.2</ele></trkpt>
    <trkpt lat="51.643223" lon="-1.320149"><ele>57.7</ele></trkpt>
    <trkpt lat="51.643231" lon="-1.320335"><ele>57.5</ele></trkpt>
    <trkpt lat="51.643403" lon="-1.321085"><ele>57.4</ele></trkpt>
    <trkpt lat="51.643489" lon="-1.321654"><ele>57.3</ele></trkpt>
    <trkpt lat="51.643528" lon="-1.322404"><ele>57.2</ele></trkpt>
    <trkpt lat="51.643558" lon="-1.322994"><ele>57.1</ele></trkpt>
    <trkpt lat="51.643524" lon="-1.324412"><ele>57.0</ele></trkpt>
    <trkpt lat="51.643594" lon="-1.326001"><ele>56.8</ele></trkpt>
    <trkpt lat="51.643836" lon="-1.327317"><ele>56.6</ele></trkpt>
    <trkpt lat="51.643858" lon="-1.327584"><ele>56.5</ele></trkpt>
    <trkpt lat="51.643926" lon="-1.328384"><ele>56.5</ele></trkpt>
    <trkpt lat="51.644047" lon="-1.329043"><ele>56.4</ele></trkpt>
    <trkpt lat="51.644417" lon="-1.329956"><ele>56.3</ele></trkpt>
    <trkpt lat="51.644996" lon="-1.331995"><ele>56.0</ele></trkpt>
    <trkpt lat="51.645126" lon="-1.332326"><ele>56.0</ele></trkpt>
    <trkpt lat="51.645160" lon="-1.332441"><ele>56.0</ele></trkpt>
    <trkpt lat="51.645461" lon="-1.333474"><ele>56.0</ele></trkpt>
    <trkpt lat="51.645628" lon="-1.334357"><ele>56.0</ele></trkpt>
    <trkpt lat="51.645799" lon="-1.334970"><ele>56.0</ele></trkpt>
    <trkpt lat="51.646104" lon="-1.335829"><ele>56.0</ele></trkpt>
    <trkpt lat="51.646407" lon="-1.336737"><ele>56.0</ele></trkpt>
    <trkpt lat="51.646478" lon="-1.337025"><ele>56.0</ele></trkpt>
    <trkpt lat="51.646492" lon="-1.337085"><ele>56.0</ele></trkpt>
    <trkpt lat="51.646471" lon="-1.337241"><ele>56.0</ele></trkpt>
    <trkpt lat="51.646401" lon="-1.337412"><ele>56.0</ele></trkpt>
    <trkpt lat="51.646353" lon="-1.337649"><ele>56.0</ele></trkpt>
    <trkpt lat="51.646370" lon="-1.337819"><ele>56.0</ele></trkpt>
    <trkpt lat="51.646847" lon="-1.339979"><ele>56.0</ele></trkpt>
    <trkpt lat="51.646827" lon="-1.340423"><ele>56.0</ele></trkpt>
    <trkpt lat="51.646898" lon="-1.340789"><ele>56.0</ele></trkpt>
    <trkpt lat="51.647638" lon="-1.339861"><ele>55.9</ele></trkpt>
    <trkpt lat="51.647885" lon="-1.339552"><ele>55.8</ele></trkpt>
    <trkpt lat="51.648538" lon="-1.338983"><ele>55.7</ele></trkpt>
    <trkpt lat="51.649878" lon="-1.337878"><ele>55.4</ele></trkpt>
    <trkpt lat="51.650391" lon="-1.337390"><ele>55.3</ele></trkpt>
    <trkpt lat="51.651024" lon="-1.336450"><ele>55.2</ele></trkpt>
    <trkpt lat="51.651220" lon="-1.336130"><ele>55.1</ele></trkpt>
    <trkpt lat="51.651653" lon="-1.335421"><ele>55.0</ele></trkpt>
    <trkpt lat="51.651879" lon="-1.335302"><ele>55.0</ele></trkpt>
    <trkpt lat="51.651914" lon="-1.335225"><ele>55.0</ele></trkpt>
    <trkpt lat="51.651901" lon="-1.335017"><ele>54.9</ele></trkpt>
    <trkpt lat="51.651954" lon="-1.334831"><ele>54.8</ele></trkpt>
    <trkpt lat="51.652438" lon="-1.333871"><ele>54.3</ele></trkpt>
    <trkpt lat="51.652657" lon="-1.333479"><ele>54.0</ele></trkpt>
    <trkpt lat="51.652769" lon="-1.333302"><ele>54.0</ele></trkpt>
    <trkpt lat="51.652982" lon="-1.332867"><ele>54.0</ele></trkpt>
    <trkpt lat="51.653279" lon="-1.332330"><ele>54.0</ele></trkpt>
    <trkpt lat="51.653475" lon="-1.331977"><ele>54.0</ele></trkpt>
    <trkpt lat="51.653505" lon="-1.331797"><ele>54.0</ele></trkpt>
    <trkpt lat="51.655319" lon="-1.328374"><ele>54.0</ele></trkpt>
    <trkpt lat="51.655825" lon="-1.327420"><ele>54.0</ele></trkpt>
    <trkpt lat="51.655845" lon="-1.327307"><ele>54.0</ele></trkpt>
    <trkpt lat="51.655792" lon="-1.327210"><ele>54.0</ele></trkpt>
    <trkpt lat="51.655459" lon="-1.326899"><ele>54.0</ele></trkpt>
    <trkpt lat="51.655216" lon="-1.326765"><ele>54.1</ele></trkpt>
    <trkpt lat="51.655276" lon="-1.326562"><ele>54.4</ele></trkpt>
    <trkpt lat="51.655459" lon="-1.325435"><ele>55.8</ele></trkpt>
    <trkpt lat="51.655649" lon="-1.324389"><ele>57.1</ele></trkpt>
    <trkpt lat="51.655849" lon="-1.323603"><ele>57.7</ele></trkpt>
    <trkpt lat="51.656135" lon="-1.322731"><ele>59.4</ele></trkpt>
    <trkpt lat="51.656338" lon="-1.322238"><ele>60.1</ele></trkpt>
    <trkpt lat="51.656549" lon="-1.321821"><ele>60.7</ele></trkpt>
    <trkpt lat="51.656557" lon="-1.321739"><ele>60.8</ele></trkpt>
    <trkpt lat="51.655337" lon="-1.318562"><ele>62.1</ele></trkpt>
    <trkpt lat="51.655212" lon="-1.318302"><ele>62.2</ele></trkpt>
    <trkpt lat="51.654954" lon="-1.318027"><ele>62.4</ele></trkpt>
    <trkpt lat="51.654875" lon="-1.317859"><ele>62.4</ele></trkpt>
    <trkpt lat="51.654847" lon="-1.317729"><ele>62.5</ele></trkpt>
    <trkpt lat="51.654711" lon="-1.316921"><ele>62.3</ele></trkpt>
    <trkpt lat="51.654695" lon="-1.316864"><ele>62.3</ele></trkpt>
    <trkpt lat="51.654797" lon="-1.316811"><ele>62.2</ele></trkpt>
    <trkpt lat="51.655031" lon="-1.316735"><ele>62.1</ele></trkpt>
    <trkpt lat="51.655382" lon="-1.316564"><ele>62.0</ele></trkpt>
    <trkpt lat="51.655815" lon="-1.316353"><ele>61.8</ele></trkpt>
    <trkpt lat="51.656880" lon="-1.315906"><ele>61.4</ele></trkpt>
    <trkpt lat="51.658014" lon="-1.315400"><ele>60.9</ele></trkpt>
    <trkpt lat="51.659068" lon="-1.314885"><ele>60.5</ele></trkpt>
    <trkpt lat="51.659292" lon="-1.314791"><ele>60.4</ele></trkpt>
    <trkpt lat="51.659451" lon="-1.314567"><ele>60.3</ele></trkpt>
    <trkpt lat="51.659542" lon="-1.314379"><ele>60.3</ele></trkpt>
    <trkpt lat="51.659673" lon="-1.313992"><ele>60.2</ele></trkpt>
    <trkpt lat="51.659723" lon="-1.313846"><ele>60.1</ele></trkpt>
    <trkpt lat="51.660048" lon="-1.312568"><ele>59.8</ele></trkpt>
    <trkpt lat="51.660431" lon="-1.311306"><ele>59.4</ele></trkpt>
    <trkpt lat="51.660751" lon="-1.310216"><ele>59.1</ele></trkpt>
    <trkpt lat="51.661073" lon="-1.308781"><ele>58.8</ele></trkpt>
    <trkpt lat="51.661307" lon="-1.308386"><ele>57.8</ele></trkpt>
    <trkpt lat="51.661319" lon="-1.308395"><ele>56.9</ele></trkpt>
    <trkpt lat="51.661902" lon="-1.308822"><ele>55.9</ele></trkpt>
    <trkpt lat="51.661981" lon="-1.308871"><ele>55.7</ele></trkpt>
    <trkpt lat="51.662164" lon="-1.308947"><ele>55.1</ele></trkpt>
    <trkpt lat="51.662256" lon="-1.308925"><ele>55.2</ele></trkpt>
    <trkpt lat="51.662286" lon="-1.308859"><ele>55.3</ele></trkpt>
    <trkpt lat="51.662323" lon="-1.308644"><ele>55.5</ele></trkpt>
    <trkpt lat="51.662391" lon="-1.308252"><ele>55.8</ele></trkpt>
    <trkpt lat="51.662484" lon="-1.307845"><ele>56.2</ele></trkpt>
    <trkpt lat="51.662697" lon="-1.307287"><ele>55.7</ele></trkpt>
    <trkpt lat="51.662926" lon="-1.306953"><ele>55.2</ele></trkpt>
    <trkpt lat="51.663152" lon="-1.306712"><ele>54.9</ele></trkpt>
    <trkpt lat="51.663279" lon="-1.306490"><ele>54.5</ele></trkpt>
    <trkpt lat="51.663408" lon="-1.306222"><ele>54.0</ele></trkpt>
    <trkpt lat="51.663731" lon="-1.305300"><ele>53.0</ele></trkpt>
    <trkpt lat="51.663791" lon="-1.305082"><ele>53.2</ele></trkpt>
    <trkpt lat="51.663857" lon="-1.304712"><ele>53.7</ele></trkpt>
    <trkpt lat="51.664078" lon="-1.303993"><ele>54.3</ele></trkpt>
    <trkpt lat="51.664331" lon="-1.303116"><ele>56.0</ele></trkpt>
    <trkpt lat="51.664475" lon="-1.302601"><ele>56.7</ele></trkpt>
    <trkpt lat="51.664617" lon="-1.301878"><ele>56.4</ele></trkpt>
    <trkpt lat="51.664749" lon="-1.301084"><ele>55.7</ele></trkpt>
    <trkpt lat="51.664798" lon="-1.300448"><ele>55.2</ele></trkpt>
    <trkpt lat="51.664872" lon="-1.299684"><ele>54.6</ele></trkpt>
    <trkpt lat="51.664901" lon="-1.299397"><ele>54.0</ele></trkpt>
    <trkpt lat="51.664907" lon="-1.298948"><ele>54.0</ele></trkpt>
    <trkpt lat="51.664891" lon="-1.298441"><ele>54.0</ele></trkpt>
    <trkpt lat="51.664870" lon="-1.298268"><ele>54.0</ele></trkpt>
    <trkpt lat="51.664834" lon="-1.298097"><ele>53.9</ele></trkpt>
  </trkseg></trk>
</gpx>
